[{"CCSDS_OMM_VERS":"2.0","COMMENT":"GENERATED VIA SPACE-TRACK.ORG API","CREATION_DATE":"2020-05-27T18:41:30","ORIGINATOR":"18 SPCS","OBJECT_NAME":"STARLINK-1098","OBJECT_ID":"2020-001D","CENTER_NAME":"EARTH","REF_FRAME":"TEME","TIME_SYSTEM":"UTC","MEAN_ELEMENT_THEORY":"SGP4","EPOCH":"2020-05-27T12:00:00.999648","MEAN_MOTION":"15.05610501","ECCENTRICITY":"0.00015470","INCLINATION":"53.0019","RA_OF_ASC_NODE":"108.6034","ARG_OF_PERICENTER":"84.6806","MEAN_ANOMALY":"286.7487","EPHEMERIS_TYPE":"0","CLASSIFICATION_TYPE":"U","NORAD_CAT_ID":"44917","ELEMENT_SET_NO":"999","REV_AT_EPOCH":"2151","BSTAR":"-0.00218070000000","MEAN_MOTION_DOT":"-0.00031936","MEAN_MOTION_DDOT":"0.0000000000000","SEMIMAJOR_AXIS":"6927.769","PERIOD":"95.642","APOAPSIS":"550.706","PERIAPSIS":"548.562","OBJECT_TYPE":"PAYLOAD","RCS_SIZE":"LARGE","COUNTRY_CODE":"US","LAUNCH_DATE":"2020-01-07","SITE":"AFETR","DECAY_DATE":null,"FILE":"2754905","GP_ID":"154631288","TLE_LINE0":"0 STARLINK-1098","TLE_LINE1":"1 44917U 20001D   20148.50001157 -.00031936 +00000-0 -21807-2 0  9996","TLE_LINE2":"2 44917 053.0019 108.6034 0001547 084.6806 286.7487 15.05610501021511"},{"CCSDS_OMM_VERS":"2.0","COMMENT":"GENERATED VIA SPACE-TRACK.ORG API","CREATION_DATE":"2020-05-28T02:51:43","ORIGINATOR":"18 SPCS","OBJECT_NAME":"STARLINK-1098","OBJECT_ID":"2020-001D","CENTER_NAME":"EARTH","REF_FRAME":"TEME","TIME_SYSTEM":"UTC","MEAN_ELEMENT_THEORY":"SGP4","EPOCH":"2020-05-27T20:00:01.000224","MEAN_MOTION":"15.05574897","ECCENTRICITY":"0.00016070","INCLINATION":"53.0021","RA_OF_ASC_NODE":"107.1059","ARG_OF_PERICENTER":"93.2285","MEAN_ANOMALY":"285.9177","EPHEMERIS_TYPE":"0","CLASSIFICATION_TYPE":"U","NORAD_CAT_ID":"44917","ELEMENT_SET_NO":"999","REV_AT_EPOCH":"178","BSTAR":"0.00258430000000","MEAN_MOTION_DOT":"0.00037570","MEAN_MOTION_DDOT":"0.0000000000000","SEMIMAJOR_AXIS":"6927.878","PERIOD":"95.644","APOAPSIS":"550.856","PERIAPSIS":"548.630","OBJECT_TYPE":"PAYLOAD","RCS_SIZE":"LARGE","COUNTRY_CODE":"US","LAUNCH_DATE":"2020-01-07","SITE":"AFETR","DECAY_DATE":null,"FILE":"2755049","GP_ID":"154654066","TLE_LINE0":"0 STARLINK-1098","TLE_LINE1":"1 44917U 20001D   20148.83334491 +.00037570 +00000-0 +25843-2 0  9994","TLE_LINE2":"2 44917 053.0021 107.1059 0001607 093.2285 285.9177 15.05574897001780"},{"CCSDS_OMM_VERS":"2.0","COMMENT":"GENERATED VIA SPACE-TRACK.ORG API","CREATION_DATE":"2020-05-28T07:26:09","ORIGINATOR":"18 SPCS","OBJECT_NAME":"STARLINK-1098","OBJECT_ID":"2020-001D","CENTER_NAME":"EARTH","REF_FRAME":"TEME","TIME_SYSTEM":"UTC","MEAN_ELEMENT_THEORY":"SGP4","EPOCH":"2020-05-28T04:00:00.999936","MEAN_MOTION":"15.05595403","ECCENTRICITY":"0.00016560","INCLINATION":"53.0021","RA_OF_ASC_NODE":"105.6114","ARG_OF_PERICENTER":"85.7567","MEAN_ANOMALY":"301.0983","EPHEMERIS_TYPE":"0","CLASSIFICATION_TYPE":"U","NORAD_CAT_ID":"44917","ELEMENT_SET_NO":"999","REV_AT_EPOCH":"2161","BSTAR":"-0.00111520000000","MEAN_MOTION_DOT":"-0.00016497","MEAN_MOTION_DDOT":"0.0000000000000","SEMIMAJOR_AXIS":"6927.815","PERIOD":"95.643","APOAPSIS":"550.827","PERIAPSIS":"548.533","OBJECT_TYPE":"PAYLOAD","RCS_SIZE":"LARGE","COUNTRY_CODE":"US","LAUNCH_DATE":"2020-01-07","SITE":"AFETR","DECAY_DATE":null,"FILE":"2755200","GP_ID":"154658068","TLE_LINE0":"0 STARLINK-1098","TLE_LINE1":"1 44917U 20001D   20149.16667824 -.00016497  00000-0 -11152-2 0  9995","TLE_LINE2":"2 44917  53.0021 105.6114 0001656  85.7567 301.0983 15.05595403 21613"},{"CCSDS_OMM_VERS":"2.0","COMMENT":"GENERATED VIA SPACE-TRACK.ORG API","CREATION_DATE":"2020-05-28T20:22:04","ORIGINATOR":"18 SPCS","OBJECT_NAME":"STARLINK-1098","OBJECT_ID":"2020-001D","CENTER_NAME":"EARTH","REF_FRAME":"TEME","TIME_SYSTEM":"UTC","MEAN_ELEMENT_THEORY":"SGP4","EPOCH":"2020-05-28T10:00:01.999584","MEAN_MOTION":"15.05596087","ECCENTRICITY":"0.00015900","INCLINATION":"53.0020","RA_OF_ASC_NODE":"104.4890","ARG_OF_PERICENTER":"83.6127","MEAN_ANOMALY":"219.0899","EPHEMERIS_TYPE":"0","CLASSIFICATION_TYPE":"U","NORAD_CAT_ID":"44917","ELEMENT_SET_NO":"999","REV_AT_EPOCH":"176","BSTAR":"-0.00019230000000","MEAN_MOTION_DOT":"-0.00003081","MEAN_MOTION_DDOT":"0.0000000000000","SEMIMAJOR_AXIS":"6927.813","PERIOD":"95.643","APOAPSIS":"550.780","PERIAPSIS":"548.577","OBJECT_TYPE":"PAYLOAD","RCS_SIZE":"LARGE","COUNTRY_CODE":"US","LAUNCH_DATE":"2020-01-07","SITE":"AFETR","DECAY_DATE":null,"FILE":"2755450","GP_ID":"154683464","TLE_LINE0":"0 STARLINK-1098","TLE_LINE1":"1 44917U 20001D   20149.41668981 -.00003081 +00000-0 -19230-3 0  9999","TLE_LINE2":"2 44917 053.0020 104.4890 0001590 083.6127 219.0899 15.05596087001763"},{"CCSDS_OMM_VERS":"2.0","COMMENT":"GENERATED VIA SPACE-TRACK.ORG API","CREATION_DATE":"2020-05-28T22:46:09","ORIGINATOR":"18 SPCS","OBJECT_NAME":"STARLINK-1098","OBJECT_ID":"2020-001D","CENTER_NAME":"EARTH","REF_FRAME":"TEME","TIME_SYSTEM":"UTC","MEAN_ELEMENT_THEORY":"SGP4","EPOCH":"2020-05-28T22:00:00.999936","MEAN_MOTION":"15.05602776","ECCENTRICITY":"0.00016530","INCLINATION":"52.9998","RA_OF_ASC_NODE":"102.2433","ARG_OF_PERICENTER":"93.3049","MEAN_ANOMALY":"40.9037","EPHEMERIS_TYPE":"0","CLASSIFICATION_TYPE":"U","NORAD_CAT_ID":"44917","ELEMENT_SET_NO":"999","REV_AT_EPOCH":"2172","BSTAR":"-0.00029411000000","MEAN_MOTION_DOT":"-0.00004565","MEAN_MOTION_DDOT":"0.0000000000000","SEMIMAJOR_AXIS":"6927.793","PERIOD":"95.642","APOAPSIS":"550.803","PERIAPSIS":"548.512","OBJECT_TYPE":"PAYLOAD","RCS_SIZE":"LARGE","COUNTRY_CODE":"US","LAUNCH_DATE":"2020-01-07","SITE":"AFETR","DECAY_DATE":null,"FILE":"2755597","GP_ID":"154687404","TLE_LINE0":"0 STARLINK-1098","TLE_LINE1":"1 44917U 20001D   20149.91667824 -.00004565  00000-0 -29411-3 0  9999","TLE_LINE2":"2 44917  52.9998 102.2433 0001653  93.3049  40.9037 15.05602776 21721"},{"CCSDS_OMM_VERS":"2.0","COMMENT":"GENERATED VIA SPACE-TRACK.ORG API","CREATION_DATE":"2020-05-29T20:05:12","ORIGINATOR":"18 SPCS","OBJECT_NAME":"STARLINK-1098","OBJECT_ID":"2020-001D","CENTER_NAME":"EARTH","REF_FRAME":"TEME","TIME_SYSTEM":"UTC","MEAN_ELEMENT_THEORY":"SGP4","EPOCH":"2020-05-29T14:00:01.999872","MEAN_MOTION":"15.05603188","ECCENTRICITY":"0.00015810","INCLINATION":"52.9996","RA_OF_ASC_NODE":"99.2507","ARG_OF_PERICENTER":"90.8519","MEAN_ANOMALY":"58.8605","EPHEMERIS_TYPE":"0","CLASSIFICATION_TYPE":"U","NORAD_CAT_ID":"44917","ELEMENT_SET_NO":"999","REV_AT_EPOCH":"175","BSTAR":"-0.00142690000000","MEAN_MOTION_DOT":"-0.00021021","MEAN_MOTION_DDOT":"0.0000000000000","SEMIMAJOR_AXIS":"6927.791","PERIOD":"95.642","APOAPSIS":"550.752","PERIAPSIS":"548.561","OBJECT_TYPE":"PAYLOAD","RCS_SIZE":"LARGE","COUNTRY_CODE":"US","LAUNCH_DATE":"2020-01-07","SITE":"AFETR","DECAY_DATE":null,"FILE":"2756089","GP_ID":"154737934","TLE_LINE0":"0 STARLINK-1098","TLE_LINE1":"1 44917U 20001D   20150.58335648 -.00021021 +00000-0 -14269-2 0  9990","TLE_LINE2":"2 44917 052.9996 099.2507 0001581 090.8519 058.8605 15.05603188001758"},{"CCSDS_OMM_VERS":"2.0","COMMENT":"GENERATED VIA SPACE-TRACK.ORG API","CREATION_DATE":"2020-05-30T03:45:11","ORIGINATOR":"18 SPCS","OBJECT_NAME":"STARLINK-1098","OBJECT_ID":"2020-001D","CENTER_NAME":"EARTH","REF_FRAME":"TEME","TIME_SYSTEM":"UTC","MEAN_ELEMENT_THEORY":"SGP4","EPOCH":"2020-05-29T22:00:00.999936","MEAN_MOTION":"15.05603528","ECCENTRICITY":"0.00016360","INCLINATION":"52.9995","RA_OF_ASC_NODE":"97.7541","ARG_OF_PERICENTER":"95.3122","MEAN_ANOMALY":"62.0503","EPHEMERIS_TYPE":"0","CLASSIFICATION_TYPE":"U","NORAD_CAT_ID":"44917","ELEMENT_SET_NO":"999","REV_AT_EPOCH":"175","BSTAR":"0.00020552000000","MEAN_MOTION_DOT":"0.00002718","MEAN_MOTION_DDOT":"0.0000000000000","SEMIMAJOR_AXIS":"6927.790","PERIOD":"95.642","APOAPSIS":"550.789","PERIAPSIS":"548.522","OBJECT_TYPE":"PAYLOAD","RCS_SIZE":"LARGE","COUNTRY_CODE":"US","LAUNCH_DATE":"2020-01-07","SITE":"AFETR","DECAY_DATE":null,"FILE":"2756215","GP_ID":"154780471","TLE_LINE0":"0 STARLINK-1098","TLE_LINE1":"1 44917U 20001D   20150.91667824 +.00002718 +00000-0 +20552-3 0  9994","TLE_LINE2":"2 44917 052.9995 097.7541 0001636 095.3122 062.0503 15.05603528001751"},{"CCSDS_OMM_VERS":"2.0","COMMENT":"GENERATED VIA SPACE-TRACK.ORG API","CREATION_DATE":"2020-05-30T08:06:09","ORIGINATOR":"18 SPCS","OBJECT_NAME":"STARLINK-1098","OBJECT_ID":"2020-001D","CENTER_NAME":"EARTH","REF_FRAME":"TEME","TIME_SYSTEM":"UTC","MEAN_ELEMENT_THEORY":"SGP4","EPOCH":"2020-05-30T03:40:35.227200","MEAN_MOTION":"15.05614417","ECCENTRICITY":"0.00019010","INCLINATION":"53.0020","RA_OF_ASC_NODE":"96.6900","ARG_OF_PERICENTER":"94.2533","MEAN_ANOMALY":"265.8672","EPHEMERIS_TYPE":"0","CLASSIFICATION_TYPE":"U","NORAD_CAT_ID":"44917","ELEMENT_SET_NO":"999","REV_AT_EPOCH":"2191","BSTAR":"0.00043137000000","MEAN_MOTION_DOT":"0.00006017","MEAN_MOTION_DDOT":"0.0000000000000","SEMIMAJOR_AXIS":"6927.757","PERIOD":"95.642","APOAPSIS":"550.939","PERIAPSIS":"548.305","OBJECT_TYPE":"PAYLOAD","RCS_SIZE":"LARGE","COUNTRY_CODE":"US","LAUNCH_DATE":"2020-01-07","SITE":"AFETR","DECAY_DATE":null,"FILE":"2756372","GP_ID":"154784770","TLE_LINE0":"0 STARLINK-1098","TLE_LINE1":"1 44917U 20001D   20151.15318550  .00006017  00000-0  43137-3 0  9990","TLE_LINE2":"2 44917  53.0020  96.6900 0001901  94.2533 265.8672 15.05614417 21917"}]